$$SOE
2460154.500000000, A.D. 2023-Jul-29 00:00:00.0000, -8.267732581413949E+07, 3.397543918244230E+08, 2.558320044075295E+07,
2460161.500000000, A.D. 2023-Aug-05 00:00:00.0000, -9.386989673580766E+07, 3.404343488265828E+08, 2.523691263800341E+07,
2460168.500000000, A.D. 2023-Aug-12 00:00:00.0000, -1.049598309832113E+08, 3.407418620600007E+08, 2.486301202506553E+07,
2460175.500000000, A.D. 2023-Aug-19 00:00:00.0000, -1.159382117136875E+08, 3.406870293719451E+08, 2.446266955848970E+07,
2460182.500000000, A.D. 2023-Aug-26 00:00:00.0000, -1.267967155050786E+08, 3.402797506707567E+08, 2.403701815189967E+07,
2460189.500000000, A.D. 2023-Sep-02 00:00:00.0000, -1.375275671270297E+08, 3.395297221323656E+08, 2.358715381980184E+07,
2460196.500000000, A.D. 2023-Sep-09 00:00:00.0000, -1.481234975737801E+08, 3.384464326048607E+08, 2.311413688629751E+07,
2460203.500000000, A.D. 2023-Sep-16 00:00:00.0000, -1.585777049894441E+08, 3.370391617836140E+08, 2.261899321475950E+07,
2460210.500000000, A.D. 2023-Sep-23 00:00:00.0000, -1.688838178710504E+08, 3.353169801258006E+08, 2.210271542428730E+07,
2460217.500000000, A.D. 2023-Sep-30 00:00:00.0000, -1.790358606966692E+08, 3.332887514233699E+08, 2.156626420568806E+07,
2460224.500000000, A.D. 2023-Oct-07 00:00:00.0000, -1.890282241462395E+08, 3.309631372621130E+08, 2.101056989577101E+07,
2460231.500000000, A.D. 2023-Oct-14 00:00:00.0000, -1.988556386921516E+08, 3.283485998536956E+08, 2.043653393341693E+07,
2460238.500000000, A.D. 2023-Oct-21 00:00:00.0000, -2.085131481614253E+08, 3.254534046671952E+08, 1.984503002442783E+07,
2460245.500000000, A.D. 2023-Oct-28 00:00:00.0000, -2.179960845396118E+08, 3.222856249786832E+08, 1.923690532467674E+07,
2460252.500000000, A.D. 2023-Nov-04 00:00:00.0000, -2.273000451167720E+08, 3.188531474511574E+08, 1.861298168857531E+07,
2460259.500000000, A.D. 2023-Nov-11 00:00:00.0000, -2.364208716560438E+08, 3.151636780425680E+08, 1.797405691405682E+07,
2460266.500000000, A.D. 2023-Nov-18 00:00:00.0000, -2.453546312332052E+08, 3.112247480909979E+08, 1.732090595619693E+07,
2460273.500000000, A.D. 2023-Nov-25 00:00:00.0000, -2.540975985504599E+08, 3.070437205265800E+08, 1.665428210287301E+07,
2460280.500000000, A.D. 2023-Dec-02 00:00:00.0000, -2.626462395802376E+08, 3.026277961360472E+08, 1.597491810783809E+07,
2460287.500000000, A.D. 2023-Dec-09 00:00:00.0000, -2.709971963547804E+08, 2.979840197662009E+08, 1.528352726883572E+07,
2460294.500000000, A.D. 2023-Dec-16 00:00:00.0000, -2.791472725189051E+08, 2.931192864328632E+08, 1.458080442569400E+07,
2460301.500000000, A.D. 2023-Dec-23 00:00:00.0000, -2.870934192132722E+08, 2.880403479872134E+08, 1.386742690337916E+07,
2460308.500000000, A.D. 2023-Dec-30 00:00:00.0000, -2.948327225527541E+08, 2.827538213642522E+08, 1.314405560952801E+07,
2460315.500000000, A.D. 2024-Jan-06 00:00:00.0000, -3.023623944008788E+08, 2.772661960377770E+08, 1.241133625675233E+07,
2460322.500000000, A.D. 2024-Jan-13 00:00:00.0000, -3.096797631949303E+08, 2.715838388617280E+08, 1.166990027174254E+07,
2460329.500000000, A.D. 2024-Jan-20 00:00:00.0000, -3.167822635313993E+08, 2.657129993669743E+08, 1.092036553198390E+07,
2460336.500000000, A.D. 2024-Jan-27 00:00:00.0000, -3.236674264839404E+08, 2.596598161565287E+08, 1.016333717032717E+07,
2460343.500000000, A.D. 2024-Feb-03 00:00:00.0000, -3.303328710281910E+08, 2.534303234462064E+08, 9.399408410083205E+06,
2460350.500000000, A.D. 2024-Feb-10 00:00:00.0000, -3.367762962444935E+08, 2.470304574553622E+08, 8.629161382522985E+06,
2460357.500000000, A.D. 2024-Feb-17 00:00:00.0000, -3.429954741129652E+08, 2.404660626521739E+08, 7.853167915955409E+06,
2460364.500000000, A.D. 2024-Feb-24 00:00:00.0000, -3.489882428230361E+08, 2.337428978664322E+08, 7.071990295632541E+06,
2460371.500000000, A.D. 2024-Mar-02 00:00:00.0000, -3.547525005308314E+08, 2.268666422373219E+08, 6.286181990588143E+06,
2460378.500000000, A.D. 2024-Mar-09 00:00:00.0000, -3.602861993925726E+08, 2.198429009354050E+08, 5.496288331091806E+06,
2460385.500000000, A.D. 2024-Mar-16 00:00:00.0000, -3.655873394491175E+08, 2.126772108601935E+08, 4.702847118193522E+06,
2460392.500000000, A.D. 2024-Mar-23 00:00:00.0000, -3.706539624385665E+08, 2.053750474281021E+08, 3.906389267079815E+06,
2460399.500000000, A.D. 2024-Mar-30 00:00:00.0000, -3.754841477550038E+08, 1.979418324315758E+08, 3.107439689036459E+06,
2460406.500000000, A.D. 2024-Apr-06 00:00:00.0000, -3.800760102761285E+08, 1.903829396122588E+08, 2.306518114603534E+06,
2460413.500000000, A.D. 2024-Apr-13 00:00:00.0000, -3.844276964847716E+08, 1.827036987944146E+08, 1.504139602132119E+06,
2460420.500000000, A.D. 2024-Apr-20 00:00:00.0000, -3.885373798150123E+08, 1.749094012616335E+08, 7.008150394436866E+05,
2460427.500000000, A.D. 2024-Apr-27 00:00:00.0000, -3.924032567249134E+08, 1.670053058239131E+08, -1.029482668986991E+05,
2460434.500000000, A.D. 2024-May-04 00:00:00.0000, -3.960235433941906E+08, 1.589966448829288E+08, -9.066459790016934E+05,
2460441.500000000, A.D. 2024-May-11 00:00:00.0000, -3.993964727947949E+08, 1.508886304048004E+08, -1.709776120471053E+06,
2460448.500000000, A.D. 2024-May-18 00:00:00.0000, -4.025202920404197E+08, 1.426864598328832E+08, -2.511838478904940E+06,
2460455.500000000, A.D. 2024-May-25 00:00:00.0000, -4.053932599802536E+08, 1.343953219448222E+08, -3.312334019389346E+06,
2460462.500000000, A.D. 2024-Jun-01 00:00:00.0000, -4.080136449689791E+08, 1.260204026084139E+08, -4.110764317654751E+06,
2460469.500000000, A.D. 2024-Jun-08 00:00:00.0000, -4.103797225600324E+08, 1.175668904258468E+08, -4.906631035821371E+06,
2460476.500000000, A.D. 2024-Jun-15 00:00:00.0000, -4.124897727173330E+08, 1.090399828242427E+08, -5.699435431259900E+06,
2460483.500000000, A.D. 2024-Jun-22 00:00:00.0000, -4.143420775472529E+08, 1.004448937804618E+08, -6.488677708802182E+06,
2460490.500000000, A.D. 2024-Jun-29 00:00:00.0000, -4.159349216725475E+08, 9.178686137285191E+07, -7.273856169222523E+06,
2460497.500000000, A.D. 2024-Jul-06 00:00:00.0000, -4.172665926053644E+08, 8.307115270492435E+07, -8.054466597347394E+06,
2460504.500000000, A.D. 2024-Jul-13 00:00:00.0000, -4.183353791697751E+08, 7.430306904163268E+07, -8.830001836225092E+06,
2460511.500000000, A.D. 2024-Jul-20 00:00:00.0000, -4.191395699607607E+08, 6.548795232146925E+07, -9.599951269912845E+06,
2460518.500000000, A.D. 2024-Jul-27 00:00:00.0000, -4.196774525019084E+08, 5.663119210101255E+07, -1.036380023221506E+07,
2460525.500000000, A.D. 2024-Aug-03 00:00:00.0000, -4.199473128359294E+08, 4.773823257609142E+07, -1.112102939609432E+07,
2460532.500000000, A.D. 2024-Aug-10 00:00:00.0000, -4.199474353879703E+08, 3.881457969468039E+07, -1.187111415801632E+07,
2460539.500000000, A.D. 2024-Aug-17 00:00:00.0000, -4.196761030607188E+08, 2.986580840146757E+07, -1.261352401829927E+07,
2460546.500000000, A.D. 2024-Aug-24 00:00:00.0000, -4.191315975432659E+08, 2.089757000876285E+07, -1.334772196048892E+07,
2460553.500000000, A.D. 2024-Aug-31 00:00:00.0000, -4.183121997332281E+08, 1.191559964950771E+07, -1.407316384443620E+07,
2460560.500000000, A.D. 2024-Sep-07 00:00:00.0000, -4.172161899265785E+08, 2.925723958313089E+06, -1.478929783570150E+07,
2460567.500000000, A.D. 2024-Sep-14 00:00:00.0000, -4.158418477124771E+08, -6.066130001342080E+06, -1.549556379723185E+07,
2460574.500000000, A.D. 2024-Sep-21 00:00:00.0000, -4.141874536261623E+08, -1.505392412767855E+07, -1.619139242296163E+07,
2460581.500000000, A.D. 2024-Sep-28 00:00:00.0000, -4.122512930754340E+08, -2.403150019258066E+07, -1.687620433194689E+07,
2460588.500000000, A.D. 2024-Oct-05 00:00:00.0000, -4.100316589020327E+08, -3.299257224706557E+07, -1.754940945882756E+07,
2460595.500000000, A.D. 2024-Oct-12 00:00:00.0000, -4.075268529691177E+08, -4.193071751308370E+07, -1.821040646270972E+07,
2460602.500000000, A.D. 2024-Oct-19 00:00:00.0000, -4.047351885598866E+08, -5.083936600757121E+07, -1.885858201482910E+07,
2460609.500000000, A.D. 2024-Oct-26 00:00:00.0000, -4.016549936619120E+08, -5.971178967556255E+07, -1.949331002698808E+07,
2460616.500000000, A.D. 2024-Nov-02 00:00:00.0000, -3.982846149286934E+08, -6.854109115409258E+07, -2.011395085617705E+07,
2460623.500000000, A.D. 2024-Nov-09 00:00:00.0000, -3.946224222755538E+08, -7.732019211817613E+07, -2.071985049217241E+07,
2460630.500000000, A.D. 2024-Nov-16 00:00:00.0000, -3.906668141433722E+08, -8.604182118044701E+07, -2.131033973017995E+07,
2460637.500000000, A.D. 2024-Nov-23 00:00:00.0000, -3.864162234496571E+08, -9.469850136642370E+07, -2.188473333687214E+07,
2460644.500000000, A.D. 2024-Nov-30 00:00:00.0000, -3.818691240931143E+08, -1.032825371804269E+08, -2.244232923268294E+07,
2460651.500000000, A.D. 2024-Dec-07 00:00:00.0000, -3.770240376753118E+08, -1.117860008144160E+08, -2.298240769504403E+07,
2460658.500000000, A.D. 2024-Dec-14 00:00:00.0000, -3.718795412201359E+08, -1.202007162498353E+08, -2.350423042031253E+07,
2460665.500000000, A.D. 2024-Dec-21 00:00:00.0000, -3.664342783125242E+08, -1.285182424701442E+08, -2.400703933473364E+07,
2460672.500000000, A.D. 2024-Dec-28 00:00:00.0000, -3.606869718015915E+08, -1.367298587316928E+08, -2.449005558051056E+07,
2460679.500000000, A.D. 2025-Jan-04 00:00:00.0000, -3.546364356025170E+08, -1.448265494984543E+08, -2.495247872421025E+07,
2460686.500000000, A.D. 2025-Jan-11 00:00:00.0000, -3.482815875609704E+08, -1.527989873651944E+08, -2.539348588817330E+07,
2460693.500000000, A.D. 2025-Jan-18 00:00:00.0000, -3.416214644534909E+08, -1.606375148799803E+08, -2.581223080030442E+07,
2460700.500000000, A.D. 2025-Jan-25 00:00:00.0000, -3.346552390563881E+08, -1.683321257426442E+08, -2.620784282962585E+07,
2460707.500000000, A.D. 2025-Feb-01 00:00:00.0000, -3.273822392915035E+08, -1.758724454210104E+08, -2.657942603550354E+07,
2460714.500000000, A.D. 2025-Feb-08 00:00:00.0000, -3.198019696096337E+08, -1.832477111878940E+08, -2.692605824396751E+07,
2460721.500000000, A.D. 2025-Feb-15 00:00:00.0000, -3.119141348242760E+08, -1.904467516364028E+08, -2.724679016701584E+07,
$$EOE